COMMENT,ORIGINATOR,NORAD_CAT_ID,OBJECT_NAME,OBJECT_TYPE,CLASSIFICATION_TYPE,INTLDES,EPOCH,EPOCH_MICROSECONDS,MEAN_MOTION,ECCENTRICITY,INCLINATION,RA_OF_ASC_NODE,ARG_OF_PERICENTER,MEAN_ANOMALY,EPHEMERIS_TYPE,ELEMENT_SET_NO,REV_AT_EPOCH,BSTAR,MEAN_MOTION_DOT,MEAN_MOTION_DDOT,FILE,TLE_LINE0,TLE_LINE1,TLE_LINE2,OBJECT_ID,OBJECT_NUMBER,SEMIMAJOR_AXIS,PERIOD,APOGEE,PERIGEE,DECAYED
GENERATED VIA SPACETRACK.ORG API,18 SPCS,44336,ARIANE 5 DEB (SYLDA),DEBRIS,U,19034D,2023-06-11 03:47:18,724704,3.18556916,0.6593769,5.9001,68.0875,151.4464,270.7056,0,999,3806,0.0067954,0.00029211,0,3930529,0 ARIANE 5 DEB (SYLDA),1 44336U 19034D   23162.15785561  .00029211  00000-0  67954-2 0  9997,2 44336   5.9001  68.0875 6593769 151.4464 270.7056  3.18556916 38069,2019-034D,44336,19510.893,452.039,25997.79,267.726,0
GENERATED VIA SPACETRACK.ORG API,18 SPCS,44336,ARIANE 5 DEB (SYLDA),DEBRIS,U,19034D,2023-06-12 09:50:27,958848,3.18631577,0.6593333,5.9031,67.2966,153.0053,266.8811,0,999,3810,0.0066791,0.00028829,0,3931287,0 ARIANE 5 DEB (SYLDA),1 44336U 19034D   23163.41004582  .00028829  00000-0  66791-2 0  9996,2 44336   5.9031  67.2966 6593333 153.0053 266.8811  3.18631577 38100,2019-034D,44336,19507.845,451.933,25991.882,267.538,0
GENERATED VIA SPACETRACK.ORG API,18 SPCS,44336,ARIANE 5 DEB (SYLDA),DEBRIS,U,19034D,2023-06-13 08:22:23,776320,3.18687736,0.6592851,5.9058,66.7001,154.177,263.8868,0,999,3811,0.0067452,0.00029072,0,3931957,0 ARIANE 5 DEB (SYLDA),1 44336U 19034D   23164.34888630  .00029072  00000-0  67452-2 0  9999,2 44336   5.9058  66.7001 6592851 154.1770 263.8868  3.18687736 38113,2019-034D,44336,19505.553,451.853,25987.139,267.698,0
GENERATED VIA SPACETRACK.ORG API,18 SPCS,44336,ARIANE 5 DEB (SYLDA),DEBRIS,U,19034D,2023-06-13 08:22:23,776320,3.18687736,0.6592851,5.9058,66.7001,154.177,263.8868,0,999,3813,0.0067452,0.00029072,0,3932134,0 ARIANE 5 DEB (SYLDA),1 44336U 19034D   23164.34888630  .00029072  00000-0  67452-2 0  9999,2 44336   5.9058  66.7001 6592851 154.1770 263.8868  3.18687736 38135,2019-034D,44336,19505.553,451.853,25987.139,267.698,0
GENERATED VIA SPACETRACK.ORG API,18 SPCS,44336,ARIANE 5 DEB (SYLDA),DEBRIS,U,19034D,2023-06-13 23:23:28,470048,3.18730133,0.6592557,5.9066,66.3054,154.9569,261.8385,0,999,3813,0.007713,0.00033317,0,3932475,0 ARIANE 5 DEB (SYLDA),1 44336U 19034D   23164.97463507  .00033317  00000-0  77130-2 0  9991,2 44336   5.9066  66.3054 6592557 154.9569 261.8385  3.18730133 38137,2019-034D,44336,19503.824,451.793,25983.695,267.682,0
GENERATED VIA SPACETRACK.ORG API,18 SPCS,44336,ARIANE 5 DEB (SYLDA),DEBRIS,U,19034D,2023-06-13 23:23:28,470048,3.18730133,0.6592557,5.9066,66.3054,154.9569,261.8385,0,999,3815,0.007713,0.00033317,0,3932965,0 ARIANE 5 DEB (SYLDA),1 44336U 19034D   23164.97463507  .00033317  00000-0  77130-2 0  9991,2 44336   5.9066  66.3054 6592557 154.9569 261.8385  3.18730133 38159,2019-034D,44336,19503.824,451.793,25983.695,267.682,0
GENERATED VIA SPACETRACK.ORG API,18 SPCS,44336,ARIANE 5 DEB (SYLDA),DEBRIS,U,19034D,2023-06-14 14:24:22,726656,3.18762695,0.6592216,5.9087,65.903,155.7443,259.7308,0,999,3817,0.0064582,0.000278,0,3933215,0 ARIANE 5 DEB (SYLDA),1 44336U 19034D   23165.60026304  .00027800  00000-0  64582-2 0  9999,2 44336   5.9087  65.9030 6592216 155.7443 259.7308  3.18762695 38174,2019-034D,44336,19502.495,451.747,25980.826,267.894,0
GENERATED VIA SPACETRACK.ORG API,18 SPCS,44336,ARIANE 5 DEB (SYLDA),DEBRIS,U,19034D,2023-06-14 21:54:46,897920,3.18778322,0.6592131,5.9095,65.7042,156.1353,258.6694,0,999,3816,0.0061437,0.00026485,0,3933608,0 ARIANE 5 DEB (SYLDA),1 44336U 19034D   23165.91304280  .00026485  00000-0  61437-2 0  9999,2 44336   5.9095  65.7042 6592131 156.1353 258.6694  3.18778322 38164,2019-034D,44336,19501.858,451.725,25979.603,267.843,0
GENERATED VIA SPACETRACK.ORG API,18 SPCS,44336,ARIANE 5 DEB (SYLDA),DEBRIS,U,19034D,2023-06-14 21:54:46,897920,3.18778322,0.6592131,5.9095,65.7042,156.1353,258.6694,0,999,3818,0.0061437,0.00026485,0,3933820,0 ARIANE 5 DEB (SYLDA),1 44336U 19034D   23165.91304280  .00026485  00000-0  61437-2 0  9999,2 44336   5.9095  65.7042 6592131 156.1353 258.6694  3.18778322 38186,2019-034D,44336,19501.858,451.725,25979.603,267.843,0
GENERATED VIA SPACETRACK.ORG API,18 SPCS,44336,ARIANE 5 DEB (SYLDA),DEBRIS,U,19034D,2023-06-14 21:54:47,940768,3.18780772,0.6592058,5.9094,65.708,156.129,258.6831,0,999,3816,0.0063239,0.0002721,0,3933300,0 ARIANE 5 DEB (SYLDA),1 44336U 19034D   23165.91305487  .00027210  00000-0  63239-2 0  9998,2 44336   5.9094  65.7080 6592058 156.1290 258.6831  3.18780772 38168,2019-034D,44336,19501.758,451.721,25979.295,267.951,0
GENERATED VIA SPACETRACK.ORG API,18 SPCS,44336,ARIANE 5 DEB (SYLDA),DEBRIS,U,19034D,2023-06-15 20:25:47,989632,3.18837373,0.6591746,5.9112,65.1159,157.2973,255.4521,0,999,3819,0.0073221,0.00031684,0,3934166,0 ARIANE 5 DEB (SYLDA),1 44336U 19034D   23166.85124988  .00031684  00000-0  73221-2 0  9999,2 44336   5.9112  65.1159 6591746 157.2973 255.4521  3.18837373 38197,2019-034D,44336,19499.45,451.641,25974.857,267.773,0
GENERATED VIA SPACETRACK.ORG API,18 SPCS,44336,ARIANE 5 DEB (SYLDA),DEBRIS,U,19034D,2023-06-15 20:25:47,989632,3.18837373,0.6591746,5.9112,65.1159,157.2973,255.4521,0,999,3821,0.0073221,0.00031684,0,3934686,0 ARIANE 5 DEB (SYLDA),1 44336U 19034D   23166.85124988  .00031684  00000-0  73221-2 0  9999,2 44336   5.9112  65.1159 6591746 157.2973 255.4521  3.18837373 38210,2019-034D,44336,19499.45,451.641,25974.857,267.773,0
GENERATED VIA SPACETRACK.ORG API,18 SPCS,44336,ARIANE 5 DEB (SYLDA),DEBRIS,U,19034D,2023-06-16 11:26:14,733024,3.18884169,0.6591352,5.9127,64.7185,158.0806,253.2392,0,999,3823,0.0077867,0.00033661,0,3934949,0 ARIANE 5 DEB (SYLDA),1 44336U 19034D   23167.47655941  .00033661  00000-0  77867-2 0  9993,2 44336   5.9127  64.7185 6591352 158.0806 253.2392  3.18884169 38236,2019-034D,44336,19497.542,451.575,25970.924,267.891,0
GENERATED VIA SPACETRACK.ORG API,18 SPCS,44336,ARIANE 5 DEB (SYLDA),DEBRIS,U,19034D,2023-06-16 18:56:24,630144,3.18911027,0.659112,5.9131,64.5227,158.4689,252.1281,0,999,3822,0.0082101,0.00035458,0,3935075,0 ARIANE 5 DEB (SYLDA),1 44336U 19034D   23167.78917396  .00035458  00000-0  82101-2 0  9995,2 44336   5.9131  64.5227 6591120 158.4689 252.1281  3.18911027 38220,2019-034D,44336,19496.447,451.537,25968.655,267.97,0
GENERATED VIA SPACETRACK.ORG API,18 SPCS,44336,ARIANE 5 DEB (SYLDA),DEBRIS,U,19034D,2023-06-17 02:26:29,129856,3.18927351,0.6590803,5.9162,64.3137,158.8696,250.9718,0,999,3823,0.0066995,0.00028737,0,3935396,0 ARIANE 5 DEB (SYLDA),1 44336U 19034D   23168.10172604  .00028737  00000-0  66995-2 0  9992,2 44336   5.9162  64.3137 6590803 158.8696 250.9718  3.18927351 38230,2019-034D,44336,19495.782,451.513,25966.933,268.361,0
GENERATED VIA SPACETRACK.ORG API,18 SPCS,44336,ARIANE 5 DEB (SYLDA),DEBRIS,U,19034D,2023-06-17 09:56:36,883392,3.18948807,0.6590772,5.9152,64.127,159.2458,249.88,0,999,3826,0.0070364,0.00030327,0,3935591,0 ARIANE 5 DEB (SYLDA),1 44336U 19034D   23168.41431578  .00030327  00000-0  70364-2 0  9997,2 44336   5.9152  64.1270 6590772 159.2458 249.8800  3.18948807 38262,2019-034D,44336,19494.908,451.483,25965.422,268.124,0
GENERATED VIA SPACETRACK.ORG API,18 SPCS,44336,ARIANE 5 DEB (SYLDA),DEBRIS,U,19034D,2023-06-17 17:26:39,623136,3.18963305,0.659063,5.9161,63.9285,159.6354,248.7402,0,999,3827,0.006517,0.00028059,0,3935891,0 ARIANE 5 DEB (SYLDA),1 44336U 19034D   23168.72684749  .00028059  00000-0  65170-2 0  9999,2 44336   5.9161  63.9285 6590630 159.6354 248.7402  3.18963305 38274,2019-034D,44336,19494.317,451.463,25964.165,268.199,0
GENERATED VIA SPACETRACK.ORG API,18 SPCS,44336,ARIANE 5 DEB (SYLDA),DEBRIS,U,19034D,2023-06-18 00:56:40,512192,3.18982305,0.6590499,5.9168,63.7306,160.0263,247.5939,0,999,3828,0.0066518,0.00028651,0,3936420,0 ARIANE 5 DEB (SYLDA),1 44336U 19034D   23169.03935778  .00028651  00000-0  66518-2 0  9990,2 44336   5.9168  63.7306 6590499 160.0263 247.5939  3.18982305 38285,2019-034D,44336,19493.543,451.436,25962.626,268.19,0
GENERATED VIA SPACETRACK.ORG API,18 SPCS,44336,ARIANE 5 DEB (SYLDA),DEBRIS,U,19034D,2023-06-18 23:26:29,865120,3.19033953,0.6590017,5.9196,63.1346,161.1965,244.1026,0,999,3831,0.0065355,0.00028047,0,3937338,0 ARIANE 5 DEB (SYLDA),1 44336U 19034D   23169.97673455  .00028047  00000-0  65355-2 0  9991,2 44336   5.9196  63.1346 6590017 161.1965 244.1026  3.19033953 38312,2019-034D,44336,19491.439,451.363,25958.196,268.413,0
GENERATED VIA SPACETRACK.ORG API,18 SPCS,44336,ARIANE 5 DEB (SYLDA),DEBRIS,U,19034D,2023-06-19 21:56:01,532832,3.19086892,0.6589526,5.9217,62.5414,162.3632,240.5541,0,999,3834,0.0063504,0.00027136,0,3938135,0 ARIANE 5 DEB (SYLDA),1 44336U 19034D   23170.91390663  .00027136  00000-0  63504-2 0  9996,2 44336   5.9217  62.5414 6589526 162.3632 240.5541  3.19086892 38347,2019-034D,44336,19489.283,451.288,25953.662,268.634,0
GENERATED VIA SPACETRACK.ORG API,18 SPCS,44336,ARIANE 5 DEB (SYLDA),DEBRIS,U,19034D,2023-06-19 21:56:02,535072,3.19089525,0.6589522,5.9216,62.545,162.3578,240.5678,0,999,3832,0.0065262,0.00027902,0,3937595,0 ARIANE 5 DEB (SYLDA),1 44336U 19034D   23170.91391823  .00027902  00000-0  65262-2 0  9999,2 44336   5.9216  62.5450 6589522 162.3578 240.5678  3.19089525 38326,2019-034D,44336,19489.176,451.284,25953.476,268.606,0
GENERATED VIA SPACETRACK.ORG API,18 SPCS,44336,ARIANE 5 DEB (SYLDA),DEBRIS,U,19034D,2023-06-20 05:25:47,989632,3.19105645,0.6589418,5.9223,62.3436,162.7522,239.3571,0,999,3833,0.0062297,0.00026639,0,3938337,0 ARIANE 5 DEB (SYLDA),1 44336U 19034D   23171.22624988  .00026639  00000-0  62297-2 0  9996,2 44336   5.9223  62.3436 6589418 162.7522 239.3571  3.19105645 38334,2019-034D,44336,19488.52,451.261,25952.185,268.584,0
